[{"OBJECT_NAME":"STARLINK-1983","OBJECT_ID":"2021-012L","EPOCH":"2023-09-15T02:50:18.745728","MEAN_MOTION":15.06387291,"ECCENTRICITY":0.0001438,"INCLINATION":53.0538,"RA_OF_ASC_NODE":161.4616,"ARG_OF_PERICENTER":85.8541,"MEAN_ANOMALY":274.2613,"EPHEMERIS_TYPE":0,"CLASSIFICATION_TYPE":"U","NORAD_CAT_ID":47630,"ELEMENT_SET_NO":999,"REV_AT_EPOCH":14360,"BSTAR":0.00031645,"MEAN_MOTION_DOT":4.434e-5,"MEAN_MOTION_DDOT":0},{"OBJECT_NAME":"STARLINK-1992","OBJECT_ID":"2021-012N","EPOCH":"2023-09-15T12:13:31.702080","MEAN_MOTION":15.06387159,"ECCENTRICITY":0.0001132,"INCLINATION":53.0529,"RA_OF_ASC_NODE":84.6196,"ARG_OF_PERICENTER":89.0634,"MEAN_ANOMALY":271.0484,"EPHEMERIS_TYPE":0,"CLASSIFICATION_TYPE":"U","NORAD_CAT_ID":47632,"ELEMENT_SET_NO":999,"REV_AT_EPOCH":14471,"BSTAR":0.00029783,"MEAN_MOTION_DOT":4.156e-5,"MEAN_MOTION_DDOT":0},{"OBJECT_NAME":"STARLINK-2009","OBJECT_ID":"2021-012P","EPOCH":"2023-09-15T04:43:03.406944","MEAN_MOTION":15.06383176,"ECCENTRICITY":0.0001473,"INCLINATION":53.055,"RA_OF_ASC_NODE":181.0519,"ARG_OF_PERICENTER":96.2569,"MEAN_ANOMALY":263.8588,"EPHEMERIS_TYPE":0,"CLASSIFICATION_TYPE":"U","NORAD_CAT_ID":47633,"ELEMENT_SET_NO":999,"REV_AT_EPOCH":14337,"BSTAR":8.6672e-5,"MEAN_MOTION_DOT":1.009e-5,"MEAN_MOTION_DDOT":0},{"OBJECT_NAME":"STARLINK-2010","OBJECT_ID":"2021-012Q","EPOCH":"2023-09-15T02:31:43.338144","MEAN_MOTION":15.06377166,"ECCENTRICITY":0.0001361,"INCLINATION":53.0541,"RA_OF_ASC_NODE":181.4357,"ARG_OF_PERICENTER":84.9397,"MEAN_ANOMALY":275.1747,"EPHEMERIS_TYPE":0,"CLASSIFICATION_TYPE":"U","NORAD_CAT_ID":47634,"ELEMENT_SET_NO":999,"REV_AT_EPOCH":14333,"BSTAR":0.00081386,"MEAN_MOTION_DOT":0.00011854,"MEAN_MOTION_DDOT":0},{"OBJECT_NAME":"STARLINK-2012","OBJECT_ID":"2021-012R","EPOCH":"2023-09-15T12:41:26.032992","MEAN_MOTION":15.06381885,"ECCENTRICITY":0.0001235,"INCLINATION":53.054,"RA_OF_ASC_NODE":84.5306,"ARG_OF_PERICENTER":79.9717,"MEAN_ANOMALY":280.1412,"EPHEMERIS_TYPE":0,"CLASSIFICATION_TYPE":"U","NORAD_CAT_ID":47635,"ELEMENT_SET_NO":999,"REV_AT_EPOCH":14473,"BSTAR":0.0003673,"MEAN_MOTION_DOT":5.191e-5,"MEAN_MOTION_DDOT":0},{"OBJECT_NAME":"STARLINK-2013","OBJECT_ID":"2021-012S","EPOCH":"2023-09-15T03:48:40.801248","MEAN_MOTION":15.0639339,"ECCENTRICITY":0.0001453,"INCLINATION":53.0552,"RA_OF_ASC_NODE":161.194,"ARG_OF_PERICENTER":82.0497,"MEAN_ANOMALY":278.0657,"EPHEMERIS_TYPE":0,"CLASSIFICATION_TYPE":"U","NORAD_CAT_ID":47636,"ELEMENT_SET_NO":999,"REV_AT_EPOCH":14362,"BSTAR":0.00092482,"MEAN_MOTION_DOT":0.00013518,"MEAN_MOTION_DDOT":0},{"OBJECT_NAME":"STARLINK-2014","OBJECT_ID":"2021-012T","EPOCH":"2023-09-15T04:41:44.272320","MEAN_MOTION":15.06373565,"ECCENTRICITY":0.0001433,"INCLINATION":53.0539,"RA_OF_ASC_NODE":161.0288,"ARG_OF_PERICENTER":85.0428,"MEAN_ANOMALY":275.0724,"EPHEMERIS_TYPE":0,"CLASSIFICATION_TYPE":"U","NORAD_CAT_ID":47637,"ELEMENT_SET_NO":999,"REV_AT_EPOCH":14364,"BSTAR":0.0021983,"MEAN_MOTION_DOT":0.00032591,"MEAN_MOTION_DDOT":0},{"OBJECT_NAME":"STARLINK-2015","OBJECT_ID":"2021-012U","EPOCH":"2023-09-15T06:13:57.710208","MEAN_MOTION":15.06386968,"ECCENTRICITY":0.0001189,"INCLINATION":53.053,"RA_OF_ASC_NODE":85.7384,"ARG_OF_PERICENTER":79.822,"MEAN_ANOMALY":280.2903,"EPHEMERIS_TYPE":0,"CLASSIFICATION_TYPE":"U","NORAD_CAT_ID":47638,"ELEMENT_SET_NO":999,"REV_AT_EPOCH":14467,"BSTAR":0.00093864,"MEAN_MOTION_DOT":0.00013722,"MEAN_MOTION_DDOT":0},{"OBJECT_NAME":"STARLINK-2016","OBJECT_ID":"2021-012V","EPOCH":"2023-09-15T02:34:22.376352","MEAN_MOTION":15.06386808,"ECCENTRICITY":0.0001453,"INCLINATION":53.0548,"RA_OF_ASC_NODE":161.4263,"ARG_OF_PERICENTER":90.9457,"MEAN_ANOMALY":269.1699,"EPHEMERIS_TYPE":0,"CLASSIFICATION_TYPE":"U","NORAD_CAT_ID":47639,"ELEMENT_SET_NO":999,"REV_AT_EPOCH":14360,"BSTAR":4.7893e-5,"MEAN_MOTION_DOT":4.32e-6,"MEAN_MOTION_DDOT":0},{"OBJECT_NAME":"STARLINK-2018","OBJECT_ID":"2021-012W","EPOCH":"2023-09-15T04:01:57.531072","MEAN_MOTION":15.06371756,"ECCENTRICITY":0.0001481,"INCLINATION":53.0547,"RA_OF_ASC_NODE":181.1553,"ARG_OF_PERICENTER":88.2022,"MEAN_ANOMALY":271.9137,"EPHEMERIS_TYPE":0,"CLASSIFICATION_TYPE":"U","NORAD_CAT_ID":47640,"ELEMENT_SET_NO":999,"REV_AT_EPOCH":14335,"BSTAR":0.00084543,"MEAN_MOTION_DOT":0.00012324,"MEAN_MOTION_DDOT":0},{"OBJECT_NAME":"STARLINK-2019","OBJECT_ID":"2021-012X","EPOCH":"2023-09-15T12:14:53.109888","MEAN_MOTION":15.06385902,"ECCENTRICITY":0.0001195,"INCLINATION":53.0541,"RA_OF_ASC_NODE":84.6155,"ARG_OF_PERICENTER":102.352,"MEAN_ANOMALY":257.7602,"EPHEMERIS_TYPE":0,"CLASSIFICATION_TYPE":"U","NORAD_CAT_ID":47641,"ELEMENT_SET_NO":999,"REV_AT_EPOCH":14471,"BSTAR":4.6728e-5,"MEAN_MOTION_DOT":4.14e-6,"MEAN_MOTION_DDOT":0},{"OBJECT_NAME":"STARLINK-2020","OBJECT_ID":"2021-012Y","EPOCH":"2023-09-15T04:10:32.578752","MEAN_MOTION":15.06383941,"ECCENTRICITY":0.0001315,"INCLINATION":53.0536,"RA_OF_ASC_NODE":176.1273,"ARG_OF_PERICENTER":82.449,"MEAN_ANOMALY":277.6648,"EPHEMERIS_TYPE":0,"CLASSIFICATION_TYPE":"U","NORAD_CAT_ID":47642,"ELEMENT_SET_NO":999,"REV_AT_EPOCH":14290,"BSTAR":0.00012483,"MEAN_MOTION_DOT":1.578e-5,"MEAN_MOTION_DDOT":0},{"OBJECT_NAME":"STARLINK-2022","OBJECT_ID":"2021-012Z","EPOCH":"2023-09-15T12:28:49.357344","MEAN_MOTION":15.06377917,"ECCENTRICITY":0.0001275,"INCLINATION":53.0527,"RA_OF_ASC_NODE":159.5749,"ARG_OF_PERICENTER":95.5175,"MEAN_ANOMALY":264.5959,"EPHEMERIS_TYPE":0,"CLASSIFICATION_TYPE":"U","NORAD_CAT_ID":47643,"ELEMENT_SET_NO":999,"REV_AT_EPOCH":14368,"BSTAR":0.0016664,"MEAN_MOTION_DOT":0.00024612,"MEAN_MOTION_DDOT":0},{"OBJECT_NAME":"STARLINK-2026","OBJECT_ID":"2021-012AA","EPOCH":"2023-09-15T04:49:42.915360","MEAN_MOTION":15.06392217,"ECCENTRICITY":0.0001491,"INCLINATION":53.0552,"RA_OF_ASC_NODE":181.0054,"ARG_OF_PERICENTER":78.7962,"MEAN_ANOMALY":281.3195,"EPHEMERIS_TYPE":0,"CLASSIFICATION_TYPE":"U","NORAD_CAT_ID":47644,"ELEMENT_SET_NO":999,"REV_AT_EPOCH":14336,"BSTAR":0.00025159,"MEAN_MOTION_DOT":3.467e-5,"MEAN_MOTION_DDOT":0},{"OBJECT_NAME":"STARLINK-2027","OBJECT_ID":"2021-012AB","EPOCH":"2023-09-15T02:09:12.109536","MEAN_MOTION":15.06396802,"ECCENTRICITY":0.0001332,"INCLINATION":53.0549,"RA_OF_ASC_NODE":151.7453,"ARG_OF_PERICENTER":88.0893,"MEAN_ANOMALY":272.0249,"EPHEMERIS_TYPE":0,"CLASSIFICATION_TYPE":"U","NORAD_CAT_ID":47645,"ELEMENT_SET_NO":999,"REV_AT_EPOCH":14373,"BSTAR":0.00024858,"MEAN_MOTION_DOT":3.423e-5,"MEAN_MOTION_DDOT":0},{"OBJECT_NAME":"STARLINK-2028","OBJECT_ID":"2021-012AC","EPOCH":"2023-09-15T00:14:23.596512","MEAN_MOTION":15.06397646,"ECCENTRICITY":0.0001519,"INCLINATION":53.0537,"RA_OF_ASC_NODE":117.1015,"ARG_OF_PERICENTER":93.293,"MEAN_ANOMALY":266.8233,"EPHEMERIS_TYPE":0,"CLASSIFICATION_TYPE":"U","NORAD_CAT_ID":47646,"ELEMENT_SET_NO":999,"REV_AT_EPOCH":14421,"BSTAR":-1.5003e-5,"MEAN_MOTION_DOT":-5.05e-6,"MEAN_MOTION_DDOT":0},{"OBJECT_NAME":"STARLINK-2030","OBJECT_ID":"2021-012AD","EPOCH":"2023-09-15T01:54:33.769728","MEAN_MOTION":15.06382066,"ECCENTRICITY":0.0001495,"INCLINATION":53.0543,"RA_OF_ASC_NODE":181.5527,"ARG_OF_PERICENTER":90.8515,"MEAN_ANOMALY":269.2645,"EPHEMERIS_TYPE":0,"CLASSIFICATION_TYPE":"U","NORAD_CAT_ID":47647,"ELEMENT_SET_NO":999,"REV_AT_EPOCH":14334,"BSTAR":0.00023162,"MEAN_MOTION_DOT":3.168e-5,"MEAN_MOTION_DDOT":0}]
