STARLINK-1983           
1 47630U 21012L   23258.11827252  .00004434  00000+0  31645-3 0  9990
2 47630  53.0538 161.4616 0001438  85.8541 274.2613 15.06387291143609
STARLINK-1992           
1 47632U 21012N   23258.50939470  .00004156  00000+0  29783-3 0  9992
2 47632  53.0529  84.6196 0001132  89.0634 271.0484 15.06387159144717
STARLINK-2009           
1 47633U 21012P   23258.19656721  .00001009  00000+0  86672-4 0  9998
2 47633  53.0550 181.0519 0001473  96.2569 263.8588 15.06383176143378
STARLINK-2010           
1 47634U 21012Q   23258.10536271  .00011854  00000+0  81386-3 0  9992
2 47634  53.0541 181.4357 0001361  84.9397 275.1747 15.06377166143333
STARLINK-2012           
1 47635U 21012R   23258.52877353  .00005191  00000+0  36730-3 0  9998
2 47635  53.0540  84.5306 0001235  79.9717 280.1412 15.06381885144733
STARLINK-2013           
1 47636U 21012S   23258.15880557  .00013518  00000+0  92482-3 0  9996
2 47636  53.0552 161.1940 0001453  82.0497 278.0657 15.06393390143623
STARLINK-2014           
1 47637U 21012T   23258.19565130  .00032591  00000+0  21983-2 0  9997
2 47637  53.0539 161.0288 0001433  85.0428 275.0724 15.06373565143644
STARLINK-2015           
1 47638U 21012U   23258.25969572  .00013722  00000+0  93864-3 0  9996
2 47638  53.0530  85.7384 0001189  79.8220 280.2903 15.06386968144676
STARLINK-2016           
1 47639U 21012V   23258.10720343  .00000432  00000+0  47893-4 0  9998
2 47639  53.0548 161.4263 0001453  90.9457 269.1699 15.06386808143607
STARLINK-2018           
1 47640U 21012W   23258.16802698  .00012324  00000+0  84543-3 0  9995
2 47640  53.0547 181.1553 0001481  88.2022 271.9137 15.06371756143354
STARLINK-2019           
1 47641U 21012X   23258.51033692  .00000414  00000+0  46728-4 0  9996
2 47641  53.0541  84.6155 0001195 102.3520 257.7602 15.06385902144715
STARLINK-2020           
1 47642U 21012Y   23258.17398818  .00001578  00000+0  12483-3 0  9995
2 47642  53.0536 176.1273 0001315  82.4490 277.6648 15.06383941142907
STARLINK-2022           
1 47643U 21012Z   23258.52001571  .00024612  00000+0  16664-2 0  9990
2 47643  53.0527 159.5749 0001275  95.5175 264.5959 15.06377917143683
STARLINK-2026           
1 47644U 21012AA  23258.20119115  .00003467  00000+0  25159-3 0  9995
2 47644  53.0552 181.0054 0001491  78.7962 281.3195 15.06392217143362
STARLINK-2027           
1 47645U 21012AB  23258.08972349  .00003423  00000+0  24858-3 0  9995
2 47645  53.0549 151.7453 0001332  88.0893 272.0249 15.06396802143739
STARLINK-2028           
1 47646U 21012AC  23258.00999533 -.00000505  00000+0 -15003-4 0  9995
2 47646  53.0537 117.1015 0001519  93.2930 266.8233 15.06397646144219
STARLINK-2030           
1 47647U 21012AD  23258.07955752  .00003168  00000+0  23162-3 0  9998
2 47647  53.0543 181.5527 0001495  90.8515 269.2645 15.06382066143342
